COSMOS 2251 DEB         
1 40228U 93036BVH 25324.69338831  .00001148  00000+0  36488-3 0  9999
2 40228  74.0547 301.2807 0023206   6.8282 171.3909 14.40921192586030
COSMOS 2251 DEB         
1 40230U 93036BVK 25325.53648266  .00003429  00000+0  90605-3 0  9997
2 40230  74.0457 266.6320 0018989 327.0548 154.3350 14.49150311586646
COSMOS 2251 DEB         
1 40233U 93036BVN 25324.51105974  .00004525  00000+0  97528-3 0  9990
2 40233  73.9367 145.6496 0047141 224.1554 135.5843 14.58033711588131
COSMOS 2251 DEB         
1 40236U 93036BVR 25320.29747312  .00001838  00000+0  19916-2 0  9990
2 40236  73.5347 185.4208 0536142  68.1565 297.5653 13.24581684532746
COSMOS 2251 DEB         
1 40238U 93036BVT 25321.64535700  .00001522  00000+0  15647-2 0  9995
2 40238  73.9870 102.1312 0550802  79.1443 287.1112 13.25041527537042
COSMOS 2251 DEB         
1 40239U 93036BVU 25318.79287105  .00003100  00000+0  59571-3 0  9990
2 40239  74.0318 329.3505 0084123  88.4180  90.3050 14.61829508592026
COSMOS 2251 DEB         
1 40792U 93036BVV 25323.60644684  .00007244  00000+0  12894-2 0  9998
2 40792  74.0434  92.0953 0017538 202.4686 169.1619 14.67156207628453
COSMOS 2251 DEB         
1 40793U 93036BVW 25321.95773649  .00003024  00000+0  15212-2 0  9998
2 40793  73.9793 208.5839 0215061  10.0580 350.4754 14.05591490678970
